{
  "links" : {
    "next" : "https://api.nasa.gov/neo/rest/v1/feed?start_date=2010-12-23&end_date=2010-12-23&detailed=true&api_key=t0TVs3DtDT2H8Oy2Zy8m2eVrNsAVKAexjcZXUckd",
    "prev" : "https://api.nasa.gov/neo/rest/v1/feed?start_date=2010-12-21&end_date=2010-12-21&detailed=true&api_key=t0TVs3DtDT2H8Oy2Zy8m2eVrNsAVKAexjcZXUckd",
    "self" : "https://api.nasa.gov/neo/rest/v1/feed?start_date=2010-12-22&end_date=2010-12-22&detailed=true&api_key=t0TVs3DtDT2H8Oy2Zy8m2eVrNsAVKAexjcZXUckd"
  },
  "element_count" : 6,
  "near_earth_objects" : {
    "2010-12-22" : [ {
      "links" : {
        "self" : "https://api.nasa.gov/neo/rest/v1/neo/3553962?api_key=t0TVs3DtDT2H8Oy2Zy8m2eVrNsAVKAexjcZXUckd"
      },
      "neo_reference_id" : "3553962",
      "name" : "(2010 XO69)",
      "nasa_jpl_url" : "http://ssd.jpl.nasa.gov/sbdb.cgi?sstr=3553962",
      "absolute_magnitude_h" : 27.1,
      "estimated_diameter" : {
        "kilometers" : {
          "estimated_diameter_min" : 0.0101054342,
          "estimated_diameter_max" : 0.0225964377
        },
        "meters" : {
          "estimated_diameter_min" : 10.1054341542,
          "estimated_diameter_max" : 22.5964377109
        },
        "miles" : {
          "estimated_diameter_min" : 0.0062792237,
          "estimated_diameter_max" : 0.0140407711
        },
        "feet" : {
          "estimated_diameter_min" : 33.1543125905,
          "estimated_diameter_max" : 74.1352966996
        }
      },
      "is_potentially_hazardous_asteroid" : false,
      "close_approach_data" : [ {
        "close_approach_date" : "2010-12-22",
        "epoch_date_close_approach" : 1293004800000,
        "relative_velocity" : {
          "kilometers_per_second" : "7.1022753137",
          "kilometers_per_hour" : "25568.1911293818",
          "miles_per_hour" : "15887.079649254"
        },
        "miss_distance" : {
          "astronomical" : "0.0071955446",
          "lunar" : "2.799066782",
          "kilometers" : "1076438.125",
          "miles" : "668867.625"
        },
        "orbiting_body" : "Earth"
      } ],
      "orbital_data" : {
        "orbit_id" : "5",
        "orbit_determination_date" : "2017-04-06 08:55:10",
        "orbit_uncertainty" : "9",
        "minimum_orbit_intersection" : ".00167986",
        "jupiter_tisserand_invariant" : "5.298",
        "epoch_osculation" : "2455546.5",
        "eccentricity" : ".2747357407884395",
        "semi_major_axis" : "1.18781967122093",
        "inclination" : "2.742506307277403",
        "ascending_node_longitude" : "267.5882533420012",
        "orbital_period" : "472.8508747047883",
        "perihelion_distance" : ".8614831539249674",
        "perihelion_argument" : "247.0694296514279",
        "aphelion_distance" : "1.514156188516893",
        "perihelion_time" : "2455603.986433269164",
        "mean_anomaly" : "316.2333135371284",
        "mean_motion" : ".7613393973834908",
        "equinox" : "J2000"
      }
    }, {
      "links" : {
        "self" : "https://api.nasa.gov/neo/rest/v1/neo/2363505?api_key=t0TVs3DtDT2H8Oy2Zy8m2eVrNsAVKAexjcZXUckd"
      },
      "neo_reference_id" : "2363505",
      "name" : "363505 (2003 UC20)",
      "nasa_jpl_url" : "http://ssd.jpl.nasa.gov/sbdb.cgi?sstr=2363505",
      "absolute_magnitude_h" : 18.1,
      "estimated_diameter" : {
        "kilometers" : {
          "estimated_diameter_min" : 0.6376097899,
          "estimated_diameter_max" : 1.4257388333
        },
        "meters" : {
          "estimated_diameter_min" : 637.6097898754,
          "estimated_diameter_max" : 1425.7388332807
        },
        "miles" : {
          "estimated_diameter_min" : 0.3961922327,
          "estimated_diameter_max" : 0.8859127646
        },
        "feet" : {
          "estimated_diameter_min" : 2091.8957030147,
          "estimated_diameter_max" : 4677.6209937807
        }
      },
      "is_potentially_hazardous_asteroid" : true,
      "close_approach_data" : [ {
        "close_approach_date" : "2010-12-22",
        "epoch_date_close_approach" : 1293004800000,
        "relative_velocity" : {
          "kilometers_per_second" : "21.9799140384",
          "kilometers_per_hour" : "79127.6905384178",
          "miles_per_hour" : "49166.8697126075"
        },
        "miss_distance" : {
          "astronomical" : "0.4301172825",
          "lunar" : "167.3156280518",
          "kilometers" : "64344628",
          "miles" : "39981900"
        },
        "orbiting_body" : "Earth"
      } ],
      "orbital_data" : {
        "orbit_id" : "236",
        "orbit_determination_date" : "2017-04-06 09:22:44",
        "orbit_uncertainty" : "0",
        "minimum_orbit_intersection" : ".0345132",
        "jupiter_tisserand_invariant" : "7.388",
        "epoch_osculation" : "2455026.5",
        "eccentricity" : ".3367760294257492",
        "semi_major_axis" : ".7813002455679843",
        "inclination" : "3.794750521346799",
        "ascending_node_longitude" : "188.8616900718955",
        "orbital_period" : "252.2466272629769",
        "perihelion_distance" : ".5181770510762358",
        "perihelion_argument" : "59.28970787934009",
        "aphelion_distance" : "1.044423440059733",
        "perihelion_time" : "2455117.282730524735",
        "mean_anomaly" : "230.4371854501246",
        "mean_motion" : "1.427174681803321",
        "equinox" : "J2000"
      }
    }, {
      "links" : {
        "self" : "https://api.nasa.gov/neo/rest/v1/neo/2382406?api_key=t0TVs3DtDT2H8Oy2Zy8m2eVrNsAVKAexjcZXUckd"
      },
      "neo_reference_id" : "2382406",
      "name" : "382406 (1996 AJ1)",
      "nasa_jpl_url" : "http://ssd.jpl.nasa.gov/sbdb.cgi?sstr=2382406",
      "absolute_magnitude_h" : 20.5,
      "estimated_diameter" : {
        "kilometers" : {
          "estimated_diameter_min" : 0.2111324448,
          "estimated_diameter_max" : 0.4721064988
        },
        "meters" : {
          "estimated_diameter_min" : 211.1324447897,
          "estimated_diameter_max" : 472.1064988055
        },
        "miles" : {
          "estimated_diameter_min" : 0.1311915784,
          "estimated_diameter_max" : 0.2933532873
        },
        "feet" : {
          "estimated_diameter_min" : 692.6917701639,
          "estimated_diameter_max" : 1548.9058855411
        }
      },
      "is_potentially_hazardous_asteroid" : true,
      "close_approach_data" : [ {
        "close_approach_date" : "2010-12-22",
        "epoch_date_close_approach" : 1293004800000,
        "relative_velocity" : {
          "kilometers_per_second" : "16.3935501272",
          "kilometers_per_hour" : "59016.7804579304",
          "miles_per_hour" : "36670.7322795402"
        },
        "miss_distance" : {
          "astronomical" : "0.4634408411",
          "lunar" : "180.2784881592",
          "kilometers" : "69329760",
          "miles" : "43079516"
        },
        "orbiting_body" : "Earth"
      } ],
      "orbital_data" : {
        "orbit_id" : "28",
        "orbit_determination_date" : "2017-04-06 09:22:13",
        "orbit_uncertainty" : "0",
        "minimum_orbit_intersection" : ".00471821",
        "jupiter_tisserand_invariant" : "4.598",
        "epoch_osculation" : "2458000.5",
        "eccentricity" : ".7813932218280256",
        "semi_major_axis" : "1.309761965614802",
        "inclination" : "2.536137197765501",
        "ascending_node_longitude" : "90.98654568088678",
        "orbital_period" : "547.5036123881862",
        "perihelion_distance" : ".2863228434752441",
        "perihelion_argument" : "238.2662183897257",
        "aphelion_distance" : "2.33320108775436",
        "perihelion_time" : "2458225.411735141342",
        "mean_anomaly" : "212.1138074364418",
        "mean_motion" : ".6575299082132009",
        "equinox" : "J2000"
      }
    } ]
  }
}